{
    "links": {
        "self": "http://www.neowsapp.com/rest/v1/neo/3972413?api_key=iIulBulltgU6a56xZRHN4H3l9WmuAYTsLGpBGhQ2"
    },
    "id": "3972413",
    "neo_reference_id": "3972413",
    "name": "(2020 AM)",
    "designation": "2020 AM",
    "nasa_jpl_url": "http://ssd.jpl.nasa.gov/sbdb.cgi?sstr=3972413",
    "absolute_magnitude_h": 24.7,
    "estimated_diameter": {
        "kilometers": {
            "estimated_diameter_min": 0.0305179233,
            "estimated_diameter_max": 0.0682401509
        },
        "meters": {
            "estimated_diameter_min": 30.5179232594,
            "estimated_diameter_max": 68.2401509401
        },
        "miles": {
            "estimated_diameter_min": 0.0189629525,
            "estimated_diameter_max": 0.0424024508
        },
        "feet": {
            "estimated_diameter_min": 100.1244233463,
            "estimated_diameter_max": 223.8850168104
        }
    },
    "is_potentially_hazardous_asteroid": false,
    "close_approach_data": [
        {
            "close_approach_date": "2005-12-24",
            "close_approach_date_full": "2005-Dec-24 13:05",
            "epoch_date_close_approach": 1135429500000,
            "relative_velocity": {
                "kilometers_per_second": "2.8020877167",
                "kilometers_per_hour": "10087.515779967",
                "miles_per_hour": "6267.9900133912"
            },
            "miss_distance": {
                "astronomical": "0.1545607234",
                "lunar": "60.1241214026",
                "kilometers": "23121955.006299158",
                "miles": "14367316.6195900604"
            },
            "orbiting_body": "Earth"
        },
        {
            "close_approach_date": "2012-12-25",
            "close_approach_date_full": "2012-Dec-25 06:26",
            "epoch_date_close_approach": 1356416760000,
            "relative_velocity": {
                "kilometers_per_second": "2.6761073822",
                "kilometers_per_hour": "9633.9865760602",
                "miles_per_hour": "5986.1846033303"
            },
            "miss_distance": {
                "astronomical": "0.1492899857",
                "lunar": "58.0738044373",
                "kilometers": "22333463.873050459",
                "miles": "13877370.9484719742"
            },
            "orbiting_body": "Earth"
        },
        {
            "close_approach_date": "2019-12-27",
            "close_approach_date_full": "2019-Dec-27 03:06",
            "epoch_date_close_approach": 1577415960000,
            "relative_velocity": {
                "kilometers_per_second": "2.66863935",
                "kilometers_per_hour": "9607.1016601695",
                "miles_per_hour": "5969.4793621203"
            },
            "miss_distance": {
                "astronomical": "0.1530362627",
                "lunar": "59.5311061903",
                "kilometers": "22893898.932680449",
                "miles": "14225609.1465062362"
            },
            "orbiting_body": "Earth"
        },
        {
            "close_approach_date": "2026-12-28",
            "close_approach_date_full": "2026-Dec-28 11:37",
            "epoch_date_close_approach": 1798457820000,
            "relative_velocity": {
                "kilometers_per_second": "2.8281407712",
                "kilometers_per_hour": "10181.3067762008",
                "miles_per_hour": "6326.2680910232"
            },
            "miss_distance": {
                "astronomical": "0.1699853352",
                "lunar": "66.1242953928",
                "kilometers": "25429444.077156024",
                "miles": "15801123.8416961712"
            },
            "orbiting_body": "Earth"
        }
    ],
    "orbital_data": {
        "orbit_id": "3",
        "orbit_determination_date": "2020-01-18 05:00:25",
        "first_observation_date": "2019-12-30",
        "last_observation_date": "2020-01-18",
        "data_arc_in_days": 19,
        "observations_used": 24,
        "orbit_uncertainty": "7",
        "minimum_orbit_intersection": ".148866",
        "jupiter_tisserand_invariant": "4.042",
        "epoch_osculation": "2459000.5",
        "eccentricity": ".3623000158376626",
        "semi_major_axis": "1.757740259548766",
        "inclination": "3.369886885741069",
        "ascending_node_longitude": "339.8289544990604",
        "orbital_period": "851.1977693725931",
        "perihelion_distance": "1.120910935675751",
        "perihelion_argument": "112.5528597901898",
        "aphelion_distance": "2.394569583421781",
        "perihelion_time": "2458840.191947031035",
        "mean_anomaly": "67.79963616606452",
        "mean_motion": ".4229334391528674",
        "equinox": "J2000",
        "orbit_class": {
            "orbit_class_type": "AMO",
            "orbit_class_description": "Near-Earth asteroid orbits similar to that of 1221 Amor",
            "orbit_class_range": "1.017 AU < q (perihelion) < 1.3 AU"
        }
    },
    "is_sentry_object": false
}